ONEWEB-0656             
1 55817U 23029X   25082.52692759 -.00000008  00000+0 -52321-4 0  9990
2 55817  87.9335   4.1140 0001411  93.6930 266.4365 13.20775086102341
ONEWEB-0657             
1 55818U 23029Y   25081.88725850  .00000083  00000+0  17509-3 0  9997
2 55818  87.9229  34.6832 0001076  79.7753 280.3501 13.19726511 99388
ONEWEB-0658             
1 55819U 23029Z   25081.88251638  .00000107  00000+0  23470-3 0  9997
2 55819  87.9224  34.6177 0002105  66.2690 293.8663 13.19726745 99399
ONEWEB-0660             
1 55820U 23029AA  25082.50937926  .00000202  00000+0  51043-3 0  9993
2 55820  87.9084  19.2968 0002244  76.4206 283.7174 13.14502242100906
ONEWEB-0661             
1 55821U 23029AB  25081.85920042 -.00000038  00000+0 -13591-3 0  9997
2 55821  87.9083  19.4956 0002265  80.9470 279.1916 13.14501831100097
ONEWEB-0662             
1 55822U 23029AC  25082.35079012  .00000289  00000+0  74626-3 0  9998
2 55822  87.9083  19.4051 0002242  75.1514 284.9864 13.14502321100916
ONEWEB-0663             
1 55823U 23029AD  25082.20912636  .00000102  00000+0  21778-3 0  9995
2 55823  87.9339   4.2339 0002334  75.6544 284.4848 13.20828859102296
ONEWEB-0664             
1 55824U 23029AE  25082.21128859  .00000181  00000+0  41426-3 0  9992
2 55824  87.9337   4.2520 0002107  90.1646 269.9729 13.20774056102307
